ONEWEB-0086             
1 45456U 20020AJ  24104.74920281  .00000193  00000+0  50803-3 0  9993
2 45456  87.9024 179.0591 0001556  95.1523 264.9783 13.11415162198484
ONEWEB-0088             
1 45457U 20020AK  24104.72647768  .00000468  00000+0  12847-2 0  9998
2 45457  87.9021 179.0313 0001920  97.7015 262.4331 13.11419476198410
ONEWEB-0102             
1 47258U 20100A   24104.66822494  .00000030  00000+0  49020-4 0  9992
2 47258  87.8971 148.8495 0002146  99.8717 260.2653 13.12439387160519
ONEWEB-0109             
1 47259U 20100B   24104.67616043 -.00000258  00000+0 -75328-3 0  9998
2 47259  87.8971 148.8114 0002082 100.4238 259.7125 13.12440033160342
ONEWEB-0110             
1 47260U 20100C   24104.62375063 -.00000216  00000+0 -63501-3 0  9993
2 47260  87.8965 148.8310 0001989 103.0196 257.1154 13.12444558160500
ONEWEB-0111             
1 47261U 20100D   24104.65712884  .00000500  00000+0  13558-2 0  9993
2 47261  87.8968 148.8178 0002034  99.6898 260.4461 13.12441483160341
ONEWEB-0114             
1 47262U 20100E   24104.61105134 -.00000528  00000+0 -15021-2 0  9993
2 47262  87.8970 148.8449 0002514 103.5623 256.5786 13.12442834160291
ONEWEB-0117             
1 47263U 20100F   24104.67933505 -.00000405  00000+0 -11611-2 0  9996
2 47263  87.8970 148.8039 0002039  96.4647 263.6713 13.12439409160311
